[{"OBJECT_NAME":"STARLINK-4423","OBJECT_ID":"2022-084W","EPOCH":"2026-03-09T22:50:21.073056","MEAN_MOTION":15.01261845,"ECCENTRICITY":0.00010006,"INCLINATION":97.6032,"RA_OF_ASC_NODE":130.4582,"ARG_OF_PERICENTER":112.3338,"MEAN_ANOMALY":247.7993,"EPHEMERIS_TYPE":0,"CLASSIFICATION_TYPE":"U","NORAD_CAT_ID":53209,"ELEMENT_SET_NO":999,"REV_AT_EPOCH":19935,"BSTAR":3.0281344e-5,"MEAN_MOTION_DOT":3.31e-6,"MEAN_MOTION_DDOT":0},{"OBJECT_NAME":"FENGYUN 1C DEB","OBJECT_ID":"1999-025DRB","EPOCH":"2026-03-08T17:06:23.542272","MEAN_MOTION":14.91461657,"ECCENTRICITY":0.00586124,"INCLINATION":98.8697,"RA_OF_ASC_NODE":161.9577,"ARG_OF_PERICENTER":340.9686,"MEAN_ANOMALY":18.9339,"EPHEMERIS_TYPE":0,"CLASSIFICATION_TYPE":"U","NORAD_CAT_ID":35243,"ELEMENT_SET_NO":999,"REV_AT_EPOCH":92280,"BSTAR":0.0026680093,"MEAN_MOTION_DOT":0.00027599,"MEAN_MOTION_DDOT":0}]
